INTELSAT 21 (IS-21)     
1 38749U 12045A   26157.12205640 -.00000272  00000+0  00000+0 0  9994
2 38749   0.0413  84.3454 0002081 357.6577 158.4938  1.00273214 50418
INTELSAT 23 (IS-23)     
1 38867U 12057A   26157.12309641 -.00000272  00000+0  00000+0 0  9994
2 38867   0.0098 315.3598 0000308 194.9242  95.5502  1.00267544 49847
FM-6                    
1 39360U 13058A   26156.68274149 -.00000001  00000+0  00000+0 0  9999
2 39360   0.0108  36.5239 0002446 112.0036 235.0340  1.00256096 45958
INTELSAT 30 (IS-30)     
1 40271U 14062A   26156.97217110 -.00000138  00000+0  00000+0 0  9996
2 40271   0.0248  46.8492 0001025 354.0943 108.3631  1.00269128  6680
DIRECTV 14              
1 40333U 14078B   26157.04259705 -.00000112  00000+0  00000+0 0  9999
2 40333   0.0096 332.0636 0000421 197.3196   1.1861  1.00270661 41933
DIRECTV 15              
1 40663U 15026A   26156.55880380 -.00000091  00000+0  00000+0 0  9999
2 40663   0.0173   3.8212 0000171 199.1088 149.3472  1.00275794 40349
SKY MEXICO-1            
1 40664U 15026B   26157.18100584 -.00000221  00000+0  00000+0 0  9996
2 40664   0.0115  36.2272 0002284  55.5301 149.2126  1.00272342 40343
INTELSAT 34 (IS-34)     
1 40874U 15039A   26156.83741654 -.00000273  00000+0  00000+0 0  9990
2 40874   0.0086 346.6634 0000367  38.6986 114.8818  1.00272098 39526
INTELSAT 31 (IS-31)     
1 41581U 16035A   26156.97217110 -.00000138  00000+0  00000+0 0  9993
2 41581   0.0164 261.2051 0000785 330.4790 277.6546  1.00271599 36577
INTELSAT 36 (IS-36)     
1 41747U 16053A   26156.43423861 -.00000012  00000+0  00000+0 0  9991
2 41747   0.0109   5.6814 0001670 335.1773 137.8309  1.00271379 35843
INTELSAT 32E (IS-32E)   
1 41945U 17007B   26156.76854095 -.00000256  00000+0  00000+0 0  9994
2 41945   0.0178 344.6873 0000563   4.7820 138.2227  1.00270705 34117
INTELSAT 35E (IS-35E)   
1 42818U 17041A   26157.05545579 -.00000225  00000+0  00000+0 0  9995
2 42818   0.0118  41.1767 0001922  32.9305 165.8532  1.00273535 32705
INTELSAT 37E (IS-37E)   
1 42950U 17059A   26157.12999836 -.00000128  00000+0  00000+0 0  9990
2 42950   0.0129  30.9612 0002581  60.5970 191.8090  1.00271774 31953
AZERSPACE 2 (IS-38)     
1 43632U 18074A   26156.94604939  .00000149  00000+0  00000+0 0  9994
2 43632   0.0175 331.2890 0001508 106.1415 202.6298  1.00271693 28335
HORIZONS-3E             
1 43633U 18074B   26156.81061698 -.00000018  00000+0  00000+0 0  9996
2 43633   0.0017  86.4800 0000772 194.2338  74.3457  1.00272496 28226
AT&T T-16               
1 44333U 19034A   26156.61452913 -.00000103  00000+0  00000+0 0  9998
2 44333   0.0214  58.9245 0000379 229.6587  85.8428  1.00272858 25518
INTELSAT 39 (IS-39)     
1 44476U 19049B   26157.14585844  .00000046  00000+0  00000+0 0  9996
2 44476   0.0177 318.8124 0000646   5.7281  44.4941  1.00271129 25015
GALAXY 30 (G-30)        
1 46114U 20056C   26157.13447568  .00000050  00000+0  00000+0 0  9991
2 46114   0.0174 339.9437 0002336  93.7166 104.2968  1.00272503 21186
GALAXY 33 (G-33)        
1 54026U 22128A   26157.14003043  .00000092  00000+0  00000+0 0  9997
2 54026   0.0203  45.4280 0001954  30.1312  96.4283  1.00272087 13638
GALAXY 34 (G-34)        
1 54027U 22128B   26156.96541106  .00000071  00000+0  00000+0 0  9991
2 54027   0.0081  33.4234 0002001  61.9178  17.6089  1.00274021 13803
GALAXY 31 (G-31)        
1 54243U 22153A   26157.13447568  .00000026  00000+0  00000+0 0  9996
2 54243   0.0206  77.3722 0001423 358.4661 106.1326  1.00272230  7024
GALAXY 32 (G-32)        
1 54244U 22153B   26157.11555638 -.00000161  00000+0  00000+0 0  9994
2 54244   0.0134  21.9577 0002351  15.5470 167.6409  1.00272188 13032
GALAXY 35 (G-35)        
1 54741U 22170A   26157.04381039 -.00000150  00000+0  00000+0 0  9997
2 54741   0.0130  36.6919 0002207  41.7605  98.6943  1.00272150 12780
GALAXY 36 (G-36)        
1 54742U 22170B   26156.83074316 -.00000173  00000+0  00000+0 0  9996
2 54742   0.0072 280.0470 0002791 162.9441  21.3451  1.00271802 12662
GALAXY 37 (G-37)        
1 57493U 23112A   26157.13447568  .00000061  00000+0  00000+0 0  9991
2 57493   0.0169 323.9471 0002121 111.8653 100.1624  1.00271424 10439
